TIANMU-1 20             
1 58661U 23208B   26197.30657720  .00004219  00000+0  13409-3 0  9991
2 58661  97.4473 314.4325 0006442 207.7112 152.3788 15.33174070141887
TIANMU-1 21             
1 58662U 23208C   26197.31551985  .00005044  00000+0  14823-3 0  9997
2 58662  97.4534 317.2501 0006805 200.0379 160.0598 15.35563713142038
TIANMU-1 22             
1 58663U 23208D   26197.28327308  .00003884  00000+0  13056-3 0  9991
2 58663  97.4527 313.6542 0002837 213.3997 146.7065 15.31435618141789
TIANMU-1 15             
1 58700U 24004A   26197.26132435  .00002805  00000+0  10890-3 0  9996
2 58700  97.4668  23.4520 0006124 224.0605 136.0146 15.26919830140213
TIANMU-1 16             
1 58701U 24004B   26197.31624766  .00002611  00000+0  10128-3 0  9995
2 58701  97.4616  22.7228 0004503 240.2912 119.7879 15.27022893140221
TIANMU-1 17             
1 58702U 24004C   26197.30173162  .00002692  00000+0  10433-3 0  9992
2 58702  97.4643  23.2040 0003953 246.6022 113.4802 15.27020707140218
TIANMU-1 18             
1 58703U 24004D   26197.27788096  .00002668  00000+0  10370-3 0  9990
2 58703  97.4660  23.4429 0003842 219.8724 140.2233 15.26935804140217
INSAT-3DS               
1 58990U 24033A   26197.15739200 -.00000166  00000+0  00000+0 0  9997
2 58990   0.0884 264.5566 0001089 224.0381 304.1257  1.00270833 47350
METEOR-M2 4             
1 59051U 24039A   26197.30499969 -.00000026  00000+0  81541-5 0  9994
2 59051  98.7026 156.2396 0008259  86.0312 274.1810 14.22432184123404
GOES 19                 
1 60133U 24119A   26197.25500961 -.00000259  00000+0  00000+0 0  9998
2 60133   0.0176 139.3391 0000391  63.8155 107.5396  1.00271307  7255
MTG-S1                  
1 64723U 25143A   26197.26982968 -.00000018  00000+0  00000+0 0  9990
2 64723   0.5838 345.3909 0003415 260.8593 144.5947  1.00273830  3716
METOP-SGA1              
1 65159U 25172A   26195.76442858  .00000019  00000+0  29163-4 0  9994
2 65159  98.6631 254.9090 0007098 333.3306  26.7504 14.19819127 47700
FENGYUN 3H              
1 65815U 25219A   26197.28448807  .00000004  00000+0  22249-4 0  9996
2 65815  98.6771 137.4887 0001118  62.4220 297.7070 14.19924872 41510
