OBJECT_NAME,OBJECT_ID,EPOCH,MEAN_MOTION,ECCENTRICITY,INCLINATION,RA_OF_ASC_NODE,ARG_OF_PERICENTER,MEAN_ANOMALY,EPHEMERIS_TYPE,CLASSIFICATION_TYPE,NORAD_CAT_ID,ELEMENT_SET_NO,REV_AT_EPOCH,BSTAR,MEAN_MOTION_DOT,MEAN_MOTION_DDOT
TIANMU-1 20,2023-208B,2026-07-16T07:21:28.270080,15.33174070,.00064426,97.4473,314.4325,207.7112,152.3788,0,U,58661,999,14188,.13409457E-3,.4219E-4,0
TIANMU-1 21,2023-208C,2026-07-16T07:34:20.915040,15.35563713,.00068056,97.4534,317.2501,200.0379,160.0598,0,U,58662,999,14203,.14822843E-3,.5044E-4,0
TIANMU-1 22,2023-208D,2026-07-16T06:47:54.794112,15.31435618,.00028378,97.4527,313.6542,213.3997,146.7065,0,U,58663,999,14178,.13055781E-3,.3884E-4,0
TIANMU-1 15,2024-004A,2026-07-16T06:16:18.423840,15.26919830,.00061246,97.4668,23.4520,224.0605,136.0146,0,U,58700,999,14021,.10890257E-3,.2805E-4,0
TIANMU-1 16,2024-004B,2026-07-16T07:35:23.797824,15.27022893,.00045033,97.4616,22.7228,240.2912,119.7879,0,U,58701,999,14022,.10128E-3,.2611E-4,0
TIANMU-1 17,2024-004C,2026-07-16T07:14:29.611968,15.27020707,.00039531,97.4643,23.2040,246.6022,113.4802,0,U,58702,999,14021,.10433453E-3,.2692E-4,0
TIANMU-1 18,2024-004D,2026-07-16T06:40:08.914944,15.26935804,.0003842,97.4660,23.4429,219.8724,140.2233,0,U,58703,999,14021,.10370159E-3,.2668E-4,0
INSAT-3DS,2024-033A,2026-07-16T03:46:38.668800,1.00270833,.00010892,0.0884,264.5566,224.0381,304.1257,0,U,58990,999,4735,0,-.166E-5,0
METEOR-M2 4,2024-039A,2026-07-16T07:19:11.973216,14.22432184,.00082597,98.7026,156.2396,86.0312,274.1810,0,U,59051,999,12340,.8154147E-5,-.26E-6,0
GOES 19,2024-119A,2026-07-16T06:07:12.830304,1.00271307,.00003914,0.0176,139.3391,63.8155,107.5396,0,U,60133,999,725,0,-.259E-5,0
MTG-S1,2025-143A,2026-07-16T06:28:33.284352,1.00273830,.00034154,0.5838,345.3909,260.8593,144.5947,0,U,64723,999,371,0,-.18E-6,0
METOP-SGA1,2025-172A,2026-07-14T18:20:46.629312,14.19819127,.00070989,98.6631,254.9090,333.3306,26.7504,0,U,65159,999,4770,.2916334E-4,.19E-6,0
FENGYUN 3H,2025-219A,2026-07-16T06:49:39.769248,14.19924872,.00011188,98.6771,137.4887,62.4220,297.7070,0,U,65815,999,4151,.2224866E-4,.4E-7,0
